[{"OBJECT_NAME":"STARLINK-34463","OBJECT_ID":"2025-137E","EPOCH":"2026-03-09T23:20:09.352608","MEAN_MOTION":15.30189777,"ECCENTRICITY":9.945e-5,"INCLINATION":53.158,"RA_OF_ASC_NODE":334.2407,"ARG_OF_PERICENTER":128.873,"MEAN_ANOMALY":231.236,"EPHEMERIS_TYPE":0,"CLASSIFICATION_TYPE":"U","NORAD_CAT_ID":64598,"ELEMENT_SET_NO":999,"REV_AT_EPOCH":4077,"BSTAR":0.00060445475,"MEAN_MOTION_DOT":0.0001758,"MEAN_MOTION_DDOT":0},{"OBJECT_NAME":"CZ-4B R\/B","OBJECT_ID":"2008-053C","EPOCH":"2026-03-09T16:52:55.405920","MEAN_MOTION":15.20774751,"ECCENTRICITY":0.00860777,"INCLINATION":97.7895,"RA_OF_ASC_NODE":133.277,"ARG_OF_PERICENTER":241.1085,"MEAN_ANOMALY":118.1494,"EPHEMERIS_TYPE":0,"CLASSIFICATION_TYPE":"U","NORAD_CAT_ID":33410,"ELEMENT_SET_NO":999,"REV_AT_EPOCH":94950,"BSTAR":0.00029822835,"MEAN_MOTION_DOT":7.181e-5,"MEAN_MOTION_DDOT":0}]
